{"fetched_at":"2026-07-23T17:55:08.470Z","source":"https://celestrak.org/NORAD/elements/gp.php?GROUP=oneweb&FORMAT=JSON","constellation":"oneweb","records":[{"OBJECT_NAME":"ONEWEB-0159","OBJECT_ID":"2021-025W","EPOCH":"2026-07-23T07:10:45.142176","CLASSIFICATION_TYPE":"U","MEAN_MOTION":13.13469818,"ECCENTRICITY":0.00021646,"INCLINATION":87.899,"RA_OF_ASC_NODE":313.0325,"ARG_OF_PERICENTER":96.3198,"MEAN_ANOMALY":263.8178,"EPHEMERIS_TYPE":0,"NORAD_CAT_ID":48062,"ELEMENT_SET_NO":999,"REV_AT_EPOCH":25834,"BSTAR":0.00071015588,"MEAN_MOTION_DOT":0.00000272,"MEAN_MOTION_DDOT":0},{"OBJECT_NAME":"ONEWEB-0164","OBJECT_ID":"2021-025X","EPOCH":"2026-07-23T06:43:56.089056","CLASSIFICATION_TYPE":"U","MEAN_MOTION":13.13470779,"ECCENTRICITY":0.00019414,"INCLINATION":87.8988,"RA_OF_ASC_NODE":313.0425,"ARG_OF_PERICENTER":102.0564,"MEAN_ANOMALY":258.0783,"EPHEMERIS_TYPE":0,"NORAD_CAT_ID":48063,"ELEMENT_SET_NO":999,"REV_AT_EPOCH":25832,"BSTAR":0.00059588856,"MEAN_MOTION_DOT":0.0000023,"MEAN_MOTION_DDOT":0},{"OBJECT_NAME":"ONEWEB-0167","OBJECT_ID":"2021-025Y","EPOCH":"2026-07-23T07:24:09.990144","CLASSIFICATION_TYPE":"U","MEAN_MOTION":13.13470121,"ECCENTRICITY":0.00026331,"INCLINATION":87.8982,"RA_OF_ASC_NODE":313.0434,"ARG_OF_PERICENTER":102.6459,"MEAN_ANOMALY":257.4965,"EPHEMERIS_TYPE":0,"NORAD_CAT_ID":48064,"ELEMENT_SET_NO":999,"REV_AT_EPOCH":25831,"BSTAR":0.00033677566,"MEAN_MOTION_DOT":0.00000136,"MEAN_MOTION_DDOT":0},{"OBJECT_NAME":"ONEWEB-0166","OBJECT_ID":"2021-025Z","EPOCH":"2026-07-23T07:57:03.713472","CLASSIFICATION_TYPE":"U","MEAN_MOTION":13.13470747,"ECCENTRICITY":0.00019442,"INCLINATION":87.899,"RA_OF_ASC_NODE":313.0136,"ARG_OF_PERICENTER":98.2534,"MEAN_ANOMALY":261.8816,"EPHEMERIS_TYPE":0,"NORAD_CAT_ID":48065,"ELEMENT_SET_NO":999,"REV_AT_EPOCH":25839,"BSTAR":-0.00079669887,"MEAN_MOTION_DOT":-0.00000278,"MEAN_MOTION_DDOT":0},{"OBJECT_NAME":"ONEWEB-0151","OBJECT_ID":"2021-025AA","EPOCH":"2026-07-23T06:09:47.498400","CLASSIFICATION_TYPE":"U","MEAN_MOTION":13.13470593,"ECCENTRICITY":0.00020879,"INCLINATION":87.8989,"RA_OF_ASC_NODE":313.0432,"ARG_OF_PERICENTER":101.6486,"MEAN_ANOMALY":258.4877,"EPHEMERIS_TYPE":0,"NORAD_CAT_ID":48066,"ELEMENT_SET_NO":999,"REV_AT_EPOCH":25832,"BSTAR":-0.00076451155,"MEAN_MOTION_DOT":-0.00000266,"MEAN_MOTION_DDOT":0},{"OBJECT_NAME":"ONEWEB-0170","OBJECT_ID":"2021-025AB","EPOCH":"2026-07-23T06:21:59.219136","CLASSIFICATION_TYPE":"U","MEAN_MOTION":13.13469978,"ECCENTRICITY":0.00020727,"INCLINATION":87.8992,"RA_OF_ASC_NODE":313.0433,"ARG_OF_PERICENTER":115.5119,"MEAN_ANOMALY":244.6225,"EPHEMERIS_TYPE":0,"NORAD_CAT_ID":48067,"ELEMENT_SET_NO":999,"REV_AT_EPOCH":25828,"BSTAR":-0.0004200938,"MEAN_MOTION_DOT":-0.00000141,"MEAN_MOTION_DDOT":0},{"OBJECT_NAME":"ONEWEB-0168","OBJECT_ID":"2021-025AC","EPOCH":"2026-07-23T00:30:57.858336","CLASSIFICATION_TYPE":"U","MEAN_MOTION":13.13469414,"ECCENTRICITY":0.00020361,"INCLINATION":87.8989,"RA_OF_ASC_NODE":313.0936,"ARG_OF_PERICENTER":100.331,"MEAN_ANOMALY":259.8049,"EPHEMERIS_TYPE":0,"NORAD_CAT_ID":48068,"ELEMENT_SET_NO":999,"REV_AT_EPOCH":25826,"BSTAR":-0.00079286503,"MEAN_MOTION_DOT":-0.00000277,"MEAN_MOTION_DDOT":0},{"OBJECT_NAME":"ONEWEB-0173","OBJECT_ID":"2021-025AD","EPOCH":"2026-07-23T00:18:46.709568","CLASSIFICATION_TYPE":"U","MEAN_MOTION":13.13469554,"ECCENTRICITY":0.00023143,"INCLINATION":87.8982,"RA_OF_ASC_NODE":313.0941,"ARG_OF_PERICENTER":95.2079,"MEAN_ANOMALY":264.9314,"EPHEMERIS_TYPE":0,"NORAD_CAT_ID":48069,"ELEMENT_SET_NO":999,"REV_AT_EPOCH":25850,"BSTAR":-0.0005755582,"MEAN_MOTION_DOT":-0.00000197,"MEAN_MOTION_DDOT":0},{"OBJECT_NAME":"ONEWEB-0171","OBJECT_ID":"2021-025AE","EPOCH":"2026-07-23T06:41:29.754240","CLASSIFICATION_TYPE":"U","MEAN_MOTION":13.13470689,"ECCENTRICITY":0.0002012,"INCLINATION":87.8979,"RA_OF_ASC_NODE":313.0487,"ARG_OF_PERICENTER":102.1667,"MEAN_ANOMALY":257.9687,"EPHEMERIS_TYPE":0,"NORAD_CAT_ID":48070,"ELEMENT_SET_NO":999,"REV_AT_EPOCH":25835,"BSTAR":0.00063116088,"MEAN_MOTION_DOT":0.00000243,"MEAN_MOTION_DDOT":0},{"OBJECT_NAME":"ONEWEB-0172","OBJECT_ID":"2021-025AF","EPOCH":"2026-07-23T06:12:13.340736","CLASSIFICATION_TYPE":"U","MEAN_MOTION":13.13471483,"ECCENTRICITY":0.00021309,"INCLINATION":87.899,"RA_OF_ASC_NODE":313.0457,"ARG_OF_PERICENTER":100.4414,"MEAN_ANOMALY":259.6956,"EPHEMERIS_TYPE":0,"NORAD_CAT_ID":48071,"ELEMENT_SET_NO":999,"REV_AT_EPOCH":25924,"BSTAR":-0.00073469058,"MEAN_MOTION_DOT":-0.00000256,"MEAN_MOTION_DDOT":0},{"OBJECT_NAME":"ONEWEB-0174","OBJECT_ID":"2021-025AG","EPOCH":"2026-07-23T05:45:26.047584","CLASSIFICATION_TYPE":"U","MEAN_MOTION":13.13469548,"ECCENTRICITY":0.00019207,"INCLINATION":87.8991,"RA_OF_ASC_NODE":313.0482,"ARG_OF_PERICENTER":95.4535,"MEAN_ANOMALY":264.6813,"EPHEMERIS_TYPE":0,"NORAD_CAT_ID":48072,"ELEMENT_SET_NO":999,"REV_AT_EPOCH":25856,"BSTAR":-0.000099708741,"MEAN_MOTION_DOT":-2.4e-7,"MEAN_MOTION_DDOT":0},{"OBJECT_NAME":"ONEWEB-0175","OBJECT_ID":"2021-025AH","EPOCH":"2026-07-23T06:29:18.296160","CLASSIFICATION_TYPE":"U","MEAN_MOTION":13.13470581,"ECCENTRICITY":0.0002219,"INCLINATION":87.8989,"RA_OF_ASC_NODE":313.0274,"ARG_OF_PERICENTER":107.1648,"MEAN_ANOMALY":252.9724,"EPHEMERIS_TYPE":0,"NORAD_CAT_ID":48073,"ELEMENT_SET_NO":999,"REV_AT_EPOCH":25822,"BSTAR":-0.00019426949,"MEAN_MOTION_DOT":-5.8e-7,"MEAN_MOTION_DDOT":0},{"OBJECT_NAME":"ONEWEB-0177","OBJECT_ID":"2021-025AJ","EPOCH":"2026-07-23T06:46:22.223424","CLASSIFICATION_TYPE":"U","MEAN_MOTION":13.13470466,"ECCENTRICITY":0.00020044,"INCLINATION":87.8989,"RA_OF_ASC_NODE":313.0426,"ARG_OF_PERICENTER":92.98,"MEAN_ANOMALY":267.1559,"EPHEMERIS_TYPE":0,"NORAD_CAT_ID":48074,"ELEMENT_SET_NO":999,"REV_AT_EPOCH":25841,"BSTAR":0.00066544586,"MEAN_MOTION_DOT":0.00000256,"MEAN_MOTION_DDOT":0},{"OBJECT_NAME":"ONEWEB-0178","OBJECT_ID":"2021-025AK","EPOCH":"2026-07-23T05:23:41.196768","CLASSIFICATION_TYPE":"U","MEAN_MOTION":13.13470673,"ECCENTRICITY":0.00022159,"INCLINATION":87.8978,"RA_OF_ASC_NODE":313.0628,"ARG_OF_PERICENTER":100.018,"MEAN_ANOMALY":260.1199,"EPHEMERIS_TYPE":0,"NORAD_CAT_ID":48075,"ELEMENT_SET_NO":999,"REV_AT_EPOCH":25845,"BSTAR":0.00066687808,"MEAN_MOTION_DOT":0.00000256,"MEAN_MOTION_DDOT":0},{"OBJECT_NAME":"ONEWEB-0108","OBJECT_ID":"2021-025AL","EPOCH":"2026-07-22T17:26:48.541344","CLASSIFICATION_TYPE":"U","MEAN_MOTION":13.13469837,"ECCENTRICITY":0.00017382,"INCLINATION":87.8991,"RA_OF_ASC_NODE":313.1454,"ARG_OF_PERICENTER":99.6099,"MEAN_ANOMALY":260.5226,"EPHEMERIS_TYPE":0,"NORAD_CAT_ID":48076,"ELEMENT_SET_NO":999,"REV_AT_EPOCH":25831,"BSTAR":-0.00056259541,"MEAN_MOTION_DOT":-0.00000193,"MEAN_MOTION_DDOT":0},{"OBJECT_NAME":"ONEWEB-0169","OBJECT_ID":"2021-025AM","EPOCH":"2026-07-22T18:13:08.081184","CLASSIFICATION_TYPE":"U","MEAN_MOTION":13.13469261,"ECCENTRICITY":0.00019305,"INCLINATION":87.8987,"RA_OF_ASC_NODE":313.1446,"ARG_OF_PERICENTER":95.4625,"MEAN_ANOMALY":264.6724,"EPHEMERIS_TYPE":0,"NORAD_CAT_ID":48077,"ELEMENT_SET_NO":999,"REV_AT_EPOCH":25697,"BSTAR":0.00074046678,"MEAN_MOTION_DOT":0.00000283,"MEAN_MOTION_DDOT":0}]}
