ONEWEB-0159             
1 48062U 21025W   26204.29913359  .00000272  00000+0  71016-3 0  9993
2 48062  87.8990 313.0325 0002164  96.3198 263.8178 13.13469818258340
ONEWEB-0164             
1 48063U 21025X   26204.28051029  .00000230  00000+0  59589-3 0  9995
2 48063  87.8988 313.0425 0001941 102.0564 258.0783 13.13470779258327
ONEWEB-0167             
1 48064U 21025Y   26204.30844896  .00000136  00000+0  33678-3 0  9997
2 48064  87.8982 313.0434 0002633 102.6459 257.4965 13.13470121258315
ONEWEB-0166             
1 48065U 21025Z   26204.33129298 -.00000278  00000+0 -79670-3 0  9994
2 48065  87.8990 313.0136 0001944  98.2534 261.8816 13.13470747258398
ONEWEB-0151             
1 48066U 21025AA  26204.25679975 -.00000266  00000+0 -76451-3 0  9999
2 48066  87.8989 313.0432 0002087 101.6486 258.4877 13.13470593258321
ONEWEB-0170             
1 48067U 21025AB  26204.26526874 -.00000141  00000+0 -42009-3 0  9994
2 48067  87.8992 313.0433 0002072 115.5119 244.6225 13.13469978258282
ONEWEB-0168             
1 48068U 21025AC  26204.02150299 -.00000277  00000+0 -79287-3 0  9991
2 48068  87.8989 313.0936 0002036 100.3310 259.8049 13.13469414258267
ONEWEB-0173             
1 48069U 21025AD  26204.01304062 -.00000197  00000+0 -57556-3 0  9996
2 48069  87.8982 313.0941 0002314  95.2079 264.9314 13.13469554258504
ONEWEB-0171             
1 48070U 21025AE  26204.27881660  .00000243  00000+0  63116-3 0  9999
2 48070  87.8979 313.0487 0002012 102.1667 257.9687 13.13470689258352
ONEWEB-0172             
1 48071U 21025AF  26204.25848774 -.00000256  00000+0 -73469-3 0  9995
2 48071  87.8990 313.0457 0002130 100.4414 259.6956 13.13471483259245
ONEWEB-0174             
1 48072U 21025AG  26204.23988481 -.00000024  00000+0 -99709-4 0  9993
2 48072  87.8991 313.0482 0001920  95.4535 264.6813 13.13469548258569
ONEWEB-0175             
1 48073U 21025AH  26204.27035065 -.00000058  00000+0 -19427-3 0  9994
2 48073  87.8989 313.0274 0002219 107.1648 252.9724 13.13470581258227
ONEWEB-0177             
1 48074U 21025AJ  26204.28220166  .00000256  00000+0  66545-3 0  9995
2 48074  87.8989 313.0426 0002004  92.9800 267.1559 13.13470466258417
ONEWEB-0178             
1 48075U 21025AK  26204.22478237  .00000256  00000+0  66688-3 0  9992
2 48075  87.8978 313.0628 0002215 100.0180 260.1199 13.13470673258453
ONEWEB-0108             
1 48076U 21025AL  26203.72695071 -.00000193  00000+0 -56260-3 0  9991
2 48076  87.8991 313.1454 0001738  99.6099 260.5226 13.13469837258318
ONEWEB-0169             
1 48077U 21025AM  26203.75912131  .00000283  00000+0  74047-3 0  9995
2 48077  87.8987 313.1446 0001930  95.4625 264.6724 13.13469261256977
